OBJECT_NAME,OBJECT_ID,EPOCH,MEAN_MOTION,ECCENTRICITY,INCLINATION,RA_OF_ASC_NODE,ARG_OF_PERICENTER,MEAN_ANOMALY,EPHEMERIS_TYPE,CLASSIFICATION_TYPE,NORAD_CAT_ID,ELEMENT_SET_NO,REV_AT_EPOCH,BSTAR,MEAN_MOTION_DOT,MEAN_MOTION_DDOT
STARLINK-5472,2022-175K,2025-05-08T22:41:30.752448,15.08841998,.0001201,53.2170,332.1233,82.6909,277.4220,0,U,54767,999,13391,.11613E-3,.1561E-4,0
STARLINK-5444,2022-175L,2025-05-08T18:49:08.397408,15.08839167,.0001157,53.2176,318.2807,86.7448,273.3677,0,U,54768,999,13193,.88409E-4,.1119E-4,0
STARLINK-5448,2022-175N,2025-05-08T16:45:50.922720,15.08833292,.0001529,53.2197,318.4617,94.4715,265.6451,0,U,54770,999,13408,.40965E-4,.364E-5,0
STARLINK-5451,2022-175P,2025-05-08T20:42:55.238976,15.08833929,.0001429,53.2187,327.3395,87.9851,272.1304,0,U,54771,999,13181,.50845E-4,.521E-5,0
STARLINK-5452,2022-175Q,2025-05-08T16:40:32.606976,15.08833771,.0001351,53.2190,318.4369,90.1893,269.9254,0,U,54772,999,13192,.42539E-4,.389E-5,0
STARLINK-5453,2022-175R,2025-05-08T22:30:53.890272,15.08835378,.0001211,53.2176,332.0782,89.8298,270.2833,0,U,54773,999,13175,.10176E-3,.1332E-4,0
STARLINK-5454,2022-175S,2025-05-08T18:47:38.487840,15.08837422,.0001434,53.2179,317.5775,84.3407,275.7749,0,U,54774,999,13194,.18497E-4,.6E-7,0
STARLINK-5465,2022-175T,2025-05-08T19:14:49.890912,15.08832572,.0001219,53.2178,332.6502,91.0391,269.0741,0,U,54775,999,13173,-.71096E-6,-.299E-5,0
STARLINK-5470,2022-175U,2025-05-08T17:07:36.052608,15.08840301,.0001379,53.2170,332.8119,92.7674,267.3476,0,U,54776,999,13388,.17545E-3,.2505E-4,0
STARLINK-5468,2022-175V,2025-05-08T19:09:31.211424,15.08835114,.0001456,53.2195,332.6314,109.4283,250.6866,0,U,54777,999,13173,.10868E-3,.1442E-4,0
STARLINK-5450,2022-175W,2025-05-08T16:29:55.667040,15.08835462,.0001326,53.2182,318.3916,104.7806,255.3333,0,U,54778,999,13408,.1391E-4,-.67E-6,0
STARLINK-5447,2022-175X,2025-05-08T16:35:13.702848,15.08837883,.0001284,53.2177,318.4126,82.5115,277.6023,0,U,54779,999,13408,.50634E-4,.518E-5,0
STARLINK-5449,2022-175Y,2025-05-08T17:44:05.060544,15.08838103,.0001058,53.2166,317.9949,104.8609,255.2501,0,U,54780,999,13409,.24761E-4,.106E-5,0
STARLINK-5443,2022-175Z,2025-05-08T16:24:36.931392,15.08831613,.0001204,53.2184,318.3619,101.3106,258.8022,0,U,54781,999,13192,.21511E-3,.3137E-4,0
STARLINK-5439,2022-175AB,2025-05-08T19:30:06.597504,15.08822944,.0001544,53.2190,317.7504,111.8660,248.2496,0,U,54783,999,13194,-.13433E-4,-.502E-5,0
STARLINK-5442,2022-175AC,2025-05-08T17:28:49.438272,15.08846808,.0001448,53.2175,332.9028,89.9498,270.1660,0,U,54784,999,13388,-.46034E-4,-.1021E-4,0
STARLINK-5440,2022-175AD,2025-05-08T17:28:10.936704,15.08838214,.0001301,53.2189,278.0161,86.7366,273.3775,0,U,54785,999,13465,.54166E-4,.574E-5,0
STARLINK-5441,2022-175AF,2025-05-08T20:34:17.822208,15.08829892,.0001248,53.2175,332.2855,91.1521,268.9614,0,U,54787,999,13174,-.11293E-4,-.468E-5,0
STARLINK-5399,2022-175AG,2025-05-08T22:24:55.522944,15.08842204,.0001364,53.2173,317.0888,101.7344,258.3801,0,U,54788,999,13412,-.75313E-4,-.1486E-4,0
STARLINK-5446,2022-175AH,2025-05-08T17:38:06.144576,15.08835650,.0001401,53.2188,302.8818,87.0732,273.0421,0,U,54789,999,13430,.22324E-4,.67E-6,0
STARLINK-5445,2022-175AJ,2025-05-08T17:28:10.014816,15.08844110,.0001282,53.2169,317.9344,92.2681,267.8458,0,U,54790,999,13409,.1929E-4,.19E-6,0
STARLINK-5425,2022-175AK,2025-05-08T19:24:46.513152,15.08835315,.0001371,53.2183,317.7269,100.9062,259.2085,0,U,54791,999,13194,-.69064E-5,-.398E-5,0
STARLINK-5431,2022-175AL,2025-05-08T17:12:51.109344,15.08867269,.0001382,53.2173,332.8336,77.8479,282.2668,0,U,54792,999,13388,.2097E-3,.3053E-4,0
STARLINK-5433,2022-175AM,2025-05-08T19:26:08.103264,15.08834290,.0001369,53.2187,307.7847,83.8111,276.3037,0,U,54793,999,13208,.63299E-4,.719E-5,0
STARLINK-5436,2022-175AP,2025-05-08T22:19:37.640928,15.08845641,.0001423,53.2177,317.0640,108.4565,251.6582,0,U,54795,999,13412,-.41162E-4,-.943E-5,0
STARLINK-5415,2022-175AQ,2025-05-08T17:22:52.218336,15.08834810,.0001159,53.2176,317.9125,87.2066,272.9059,0,U,54796,999,13409,.33106E-3,.4984E-4,0
STARLINK-5435,2022-175AR,2025-05-08T22:26:58.740576,15.08832676,.00015,53.2190,332.0585,92.8604,267.2560,0,U,54797,999,13175,.8912E-4,.113E-4,0
STARLINK-5420,2022-175AS,2025-05-08T17:18:53.473536,15.08835132,.0001267,53.2177,307.9381,87.4163,272.6974,0,U,54798,999,13423,.51167E-5,-.206E-5,0
STARLINK-5421,2022-175AT,2025-05-08T17:45:25.730496,15.08833318,.0001362,53.2187,308.0605,104.6593,255.4550,0,U,54799,999,13423,.51432E-5,-.206E-5,0
STARLINK-5428,2022-175AU,2025-05-08T20:40:56.318016,15.08833215,.0001121,53.2173,322.3103,115.8913,244.2194,0,U,54800,999,13189,-.75005E-4,-.1481E-4,0
