STARLINK-5472           
1 54767U 22175K   25128.94549482  .00001561  00000+0  11613-3 0  9996
2 54767  53.2170 332.1233 0001201  82.6909 277.4220 15.08841998133918
STARLINK-5444           
1 54768U 22175L   25128.78412497  .00001119  00000+0  88409-4 0  9991
2 54768  53.2176 318.2807 0001157  86.7448 273.3677 15.08839167131936
STARLINK-5448           
1 54770U 22175N   25128.69850605  .00000364  00000+0  40965-4 0  9997
2 54770  53.2197 318.4617 0001529  94.4715 265.6451 15.08833292134085
STARLINK-5451           
1 54771U 22175P   25128.86313934  .00000521  00000+0  50845-4 0  9999
2 54771  53.2187 327.3395 0001429  87.9851 272.1304 15.08833929131819
STARLINK-5452           
1 54772U 22175Q   25128.69482184  .00000389  00000+0  42539-4 0  9998
2 54772  53.2190 318.4369 0001351  90.1893 269.9254 15.08833771131927
STARLINK-5453           
1 54773U 22175R   25128.93812373  .00001332  00000+0  10176-3 0  9993
2 54773  53.2176 332.0782 0001211  89.8298 270.2833 15.08835378131756
STARLINK-5454           
1 54774U 22175S   25128.78308435  .00000006  00000+0  18497-4 0  9998
2 54774  53.2179 317.5775 0001434  84.3407 275.7749 15.08837422131948
STARLINK-5465           
1 54775U 22175T   25128.80196633 -.00000299  00000+0 -71096-6 0  9999
2 54775  53.2178 332.6502 0001219  91.0391 269.0741 15.08832572131738
STARLINK-5470           
1 54776U 22175U   25128.71361172  .00002505  00000+0  17545-3 0  9998
2 54776  53.2170 332.8119 0001379  92.7674 267.3476 15.08840301133889
STARLINK-5468           
1 54777U 22175V   25128.79827791  .00001442  00000+0  10868-3 0  9991
2 54777  53.2195 332.6314 0001456 109.4283 250.6866 15.08835114131736
STARLINK-5450           
1 54778U 22175W   25128.68744985 -.00000067  00000+0  13910-4 0  9998
2 54778  53.2182 318.3916 0001326 104.7806 255.3333 15.08835462134085
STARLINK-5447           
1 54779U 22175X   25128.69113082  .00000518  00000+0  50634-4 0  9992
2 54779  53.2177 318.4126 0001284  82.5115 277.6023 15.08837883134085
STARLINK-5449           
1 54780U 22175Y   25128.73894746  .00000106  00000+0  24761-4 0  9997
2 54780  53.2166 317.9949 0001058 104.8609 255.2501 15.08838103134097
STARLINK-5443           
1 54781U 22175Z   25128.68376078  .00003137  00000+0  21511-3 0  9991
2 54781  53.2184 318.3619 0001204 101.3106 258.8022 15.08831613131929
STARLINK-5439           
1 54783U 22175AB  25128.81257636 -.00000502  00000+0 -13433-4 0  9996
2 54783  53.2190 317.7504 0001544 111.8660 248.2496 15.08822944131949
STARLINK-5442           
1 54784U 22175AC  25128.72834998 -.00001021  00000+0 -46034-4 0  9999
2 54784  53.2175 332.9028 0001448  89.9498 270.1660 15.08846808133887
STARLINK-5440           
1 54785U 22175AD  25128.72790436  .00000574  00000+0  54166-4 0  9993
2 54785  53.2189 278.0161 0001301  86.7366 273.3775 15.08838214134658
STARLINK-5441           
1 54787U 22175AF  25128.85715072 -.00000468  00000+0 -11293-4 0  9990
2 54787  53.2175 332.2855 0001248  91.1521 268.9614 15.08829892131742
STARLINK-5399           
1 54788U 22175AG  25128.93397596 -.00001486  00000+0 -75313-4 0  9991
2 54788  53.2173 317.0888 0001364 101.7344 258.3801 15.08842204134126
STARLINK-5446           
1 54789U 22175AH  25128.73479334  .00000067  00000+0  22324-4 0  9997
2 54789  53.2188 302.8818 0001401  87.0732 273.0421 15.08835650134306
STARLINK-5445           
1 54790U 22175AJ  25128.72789369  .00000019  00000+0  19290-4 0  9995
2 54790  53.2169 317.9344 0001282  92.2681 267.8458 15.08844110134094
STARLINK-5425           
1 54791U 22175AK  25128.80887168 -.00000398  00000+0 -69064-5 0  9998
2 54791  53.2183 317.7269 0001371 100.9062 259.2085 15.08835315131943
STARLINK-5431           
1 54792U 22175AL  25128.71725821  .00003053  00000+0  20970-3 0  9996
2 54792  53.2173 332.8336 0001382  77.8479 282.2668 15.08867269133883
STARLINK-5433           
1 54793U 22175AM  25128.80981601  .00000719  00000+0  63299-4 0  9995
2 54793  53.2187 307.7847 0001369  83.8111 276.3037 15.08834290132085
STARLINK-5436           
1 54795U 22175AP  25128.93029677 -.00000943  00000+0 -41162-4 0  9993
2 54795  53.2177 317.0640 0001423 108.4565 251.6582 15.08845641134129
STARLINK-5415           
1 54796U 22175AQ  25128.72421549  .00004984  00000+0  33106-3 0  9990
2 54796  53.2176 317.9125 0001159  87.2066 272.9059 15.08834810134099
STARLINK-5435           
1 54797U 22175AR  25128.93540209  .00001130  00000+0  89120-4 0  9997
2 54797  53.2190 332.0585 0001500  92.8604 267.2560 15.08832676131756
STARLINK-5420           
1 54798U 22175AS  25128.72145224 -.00000206  00000+0  51167-5 0  9998
2 54798  53.2177 307.9381 0001267  87.4163 272.6974 15.08835132134232
STARLINK-5421           
1 54799U 22175AT  25128.73988114 -.00000206  00000+0  51432-5 0  9998
2 54799  53.2187 308.0605 0001362 104.6593 255.4550 15.08833318134233
STARLINK-5428           
1 54800U 22175AU  25128.86176294 -.00001481  00000+0 -75005-4 0  9991
2 54800  53.2173 322.3103 0001121 115.8913 244.2194 15.08833215131891
